[{"OBJECT_NAME":"TIANPING 2B","OBJECT_ID":"2022-032C","EPOCH":"2026-03-09T22:22:05.849760","MEAN_MOTION":15.01267566,"ECCENTRICITY":0.00208707,"INCLINATION":97.6053,"RA_OF_ASC_NODE":116.3222,"ARG_OF_PERICENTER":130.0797,"MEAN_ANOMALY":230.2261,"EPHEMERIS_TYPE":0,"CLASSIFICATION_TYPE":"U","NORAD_CAT_ID":52155,"ELEMENT_SET_NO":999,"REV_AT_EPOCH":21538,"BSTAR":0.00026542484,"MEAN_MOTION_DOT":3.368e-5,"MEAN_MOTION_DDOT":0},{"OBJECT_NAME":"STARLINK-34955","OBJECT_ID":"2025-175U","EPOCH":"2026-03-09T15:03:23.248224","MEAN_MOTION":15.05647103,"ECCENTRICITY":0.0002389,"INCLINATION":97.6021,"RA_OF_ASC_NODE":302.6373,"ARG_OF_PERICENTER":84.9154,"MEAN_ANOMALY":275.2345,"EPHEMERIS_TYPE":0,"CLASSIFICATION_TYPE":"U","NORAD_CAT_ID":65192,"ELEMENT_SET_NO":999,"REV_AT_EPOCH":3260,"BSTAR":0.00073817,"MEAN_MOTION_DOT":0.00010606,"MEAN_MOTION_DDOT":0}]
